[{"OBJECT_NAME":"KUIPER-00128","OBJECT_ID":"2025-228L","EPOCH":"2026-03-09T23:21:50.737824","MEAN_MOTION":14.79901973,"ECCENTRICITY":7.252e-5,"INCLINATION":51.9035,"RA_OF_ASC_NODE":351.8651,"ARG_OF_PERICENTER":103.1406,"MEAN_ANOMALY":256.9637,"EPHEMERIS_TYPE":0,"CLASSIFICATION_TYPE":"U","NORAD_CAT_ID":65957,"ELEMENT_SET_NO":999,"REV_AT_EPOCH":2337,"BSTAR":0.00048490484,"MEAN_MOTION_DOT":3.475e-5,"MEAN_MOTION_DDOT":0},{"OBJECT_NAME":"FENGYUN 1C DEB","OBJECT_ID":"1999-025BPE","EPOCH":"2026-03-09T18:26:54.503232","MEAN_MOTION":14.78648757,"ECCENTRICITY":0.00200285,"INCLINATION":99.0642,"RA_OF_ASC_NODE":358.9756,"ARG_OF_PERICENTER":319.3641,"MEAN_ANOMALY":40.6071,"EPHEMERIS_TYPE":0,"CLASSIFICATION_TYPE":"U","NORAD_CAT_ID":31296,"ELEMENT_SET_NO":999,"REV_AT_EPOCH":98632,"BSTAR":0.0057442422,"MEAN_MOTION_DOT":0.00042417,"MEAN_MOTION_DDOT":0}]
